     2              NAVIGATION DATA                         RINEX VERSION / TYPE
CCRINEXN V1.6.0 UX  CDDIS               27-SEP-17 17:31     PGM / RUN BY / DATE 
IGS BROADCAST EPHEMERIS FILE                                COMMENT             
    0.8382D-08  0.1490D-07 -0.5960D-07 -0.5960D-07          ION ALPHA           
    0.8397D+05  0.1638D+05 -0.1311D+06 -0.6554D+05          ION BETA            
    0.000000000000D+00 0.000000000000D+00   405504     1968 DELTA-UTC: A0,A1,T,W
    18                                                      LEAP SECONDS        
                                                            END OF HEADER       
26 17  9 26 18  0  0.0-0.414853449911D-03 0.111413100967D-10 0.000000000000D+00
    0.182000000000D+03 0.125000000000D+01 0.454983237592D-08 0.133720369314D+01
    0.117346644402D-06 0.193413498346D-02 0.424310564995D-05 0.515377559090D+04
    0.237600000000D+06 0.931322574616D-08-0.477194321676D+00 0.260770320892D-07
    0.958116012326D+00 0.295156250000D+03-0.197696554855D-01-0.827284459718D-08
   -0.446447167745D-10 0.100000000000D+01 0.196800000000D+04 0.000000000000D+00
    0.200000000000D+01 0.000000000000D+00 0.745058059692D-08 0.694000000000D+03
    0.230400000000D+06 0.400000000000D+01 0.000000000000D+00 0.000000000000D+00
27 17  9 26 18  0  0.0 0.329965725541D-03 0.477484718431D-11 0.000000000000D+00
    0.182000000000D+03-0.533750000000D+02 0.414088674461D-08-0.485303087873D+00
   -0.271201133728D-05 0.493374501821D-02 0.770762562752D-05 0.515367375755D+04
    0.237600000000D+06 0.763684511185D-07 0.579441633670D+00 0.335276126862D-07
    0.975941693992D+00 0.238593750000D+03 0.394213504735D+00-0.797247512452D-08
    0.542879768917D-10 0.100000000000D+01 0.196800000000D+04 0.000000000000D+00
    0.200000000000D+01 0.000000000000D+00 0.139698386192D-08 0.694000000000D+03
    0.230400000000D+06 0.000000000000D+00 0.000000000000D+00 0.000000000000D+00
28 17  9 26 18  0  0.0 0.649056397378D-03 0.329691829393D-11 0.000000000000D+00
    0.000000000000D+00-0.200000000000D+01 0.405731186047D-08 0.399115501837D+00
   -0.154599547386D-06 0.198529151967D-01 0.494159758091D-05 0.515365684319D+04
    0.237600000000D+06-0.294297933578D-06-0.379536824455D+00-0.171363353729D-06
    0.987936500184D+00 0.301906250000D+03-0.156336213407D+01-0.835034782550D-08
   -0.107147320259D-09 0.100000000000D+01 0.196800000000D+04 0.000000000000D+00
    0.400000000000D+01 0.000000000000D+00-0.111758708954D-07 0.000000000000D+00
    0.235950000000D+06 0.400000000000D+01 0.000000000000D+00 0.000000000000D+00
29 17  9 26 18  0  0.0 0.558303203434D-03-0.454747350886D-11 0.000000000000D+00
    0.890000000000D+02-0.552500000000D+02 0.396873674239D-08 0.744892292211D+00
   -0.314041972160D-05 0.486008008011D-03 0.740028917789D-05 0.515356323814D+04
    0.237600000000D+06-0.186264514923D-07 0.642373333885D+00-0.130385160446D-07
    0.982230042967D+00 0.248343750000D+03 0.932247205598D+00-0.780603943859D-08
    0.828605943335D-10 0.100000000000D+01 0.196800000000D+04 0.000000000000D+00
    0.200000000000D+01 0.000000000000D+00-0.102445483208D-07 0.857000000000D+03
    0.230400000000D+06 0.400000000000D+01 0.000000000000D+00 0.000000000000D+00
30 17  9 26 18  0  0.0 0.138286501169D-03-0.216004991671D-11 0.000000000000D+00
    0.188000000000D+03 0.772812500000D+02 0.476698427832D-08 0.292133887479D+01
    0.388361513615D-05 0.304238009267D-02 0.733882188797D-05 0.515362842369D+04
    0.237600000000D+06-0.167638063431D-07-0.145292538033D+01-0.186264514923D-08
    0.946441754892D+00 0.230625000000D+03-0.305290094679D+01-0.821712799065D-08
   -0.260725145963D-10 0.100000000000D+01 0.196800000000D+04 0.000000000000D+00
    0.290000000000D+01 0.000000000000D+00 0.372529029846D-08 0.700000000000D+03
    0.232560000000D+06 0.400000000000D+01 0.000000000000D+00 0.000000000000D+00
31 17  9 26 18  0  0.0 0.172726344317D-03-0.250111042988D-11 0.000000000000D+00
    0.910000000000D+02 0.642812500000D+02 0.429839319693D-08 0.272683972782D+01
    0.334158539772D-05 0.854786438867D-02 0.717863440514D-05 0.515379219437D+04
    0.237600000000D+06-0.707805156708D-07-0.147860351471D+01 0.670552253723D-07
    0.965461907707D+00 0.247406250000D+03-0.239388830660D+00-0.792461563037D-08
   -0.582167092311D-10 0.100000000000D+01 0.196800000000D+04 0.000000000000D+00
    0.200000000000D+01 0.000000000000D+00-0.135041773319D-07 0.859000000000D+03
    0.000000000000D+00 0.000000000000D+00 0.000000000000D+00 0.000000000000D+00
 4 17  9 26 19 59 44.0 0.341618433595D-04 0.761701812735D-11 0.000000000000D+00
    0.770000000000D+02-0.482812500000D+02 0.451125936607D-08 0.769745358344D+00
   -0.254623591900D-05 0.123611035524D-01 0.673905014992D-05 0.515366876793D+04
    0.244784000000D+06-0.465661287308D-07 0.489594795051D+00 0.212341547012D-06
    0.957234770956D+00 0.249593750000D+03 0.442007625015D+00-0.823105672509D-08
   -0.764317567570D-10 0.100000000000D+01 0.196800000000D+04 0.000000000000D+00
    0.200000000000D+01 0.100000000000D+01-0.558793544769D-08 0.845000000000D+03
    0.239340000000D+06 0.000000000000D+00 0.000000000000D+00 0.000000000000D+00
 8 17  9 26 19 59 44.0-0.748974271119D-04-0.136424205266D-11 0.000000000000D+00
    0.182000000000D+03-0.522187500000D+02 0.419446043040D-08 0.105893437666D+01
   -0.270828604698D-05 0.263315788470D-02 0.716932117939D-05 0.515369905853D+04
    0.244784000000D+06 0.670552253723D-07 0.572841059941D+00-0.335276126862D-07
    0.967798991021D+00 0.244093750000D+03-0.629543437000D+00-0.799461872224D-08
    0.464305054455D-10 0.100000000000D+01 0.196800000000D+04 0.000000000000D+00
    0.200000000000D+01 0.000000000000D+00 0.558793544769D-08 0.694000000000D+03
    0.237600000000D+06 0.400000000000D+01 0.000000000000D+00 0.000000000000D+00
10 17  9 26 19 59 44.0 0.746180303395D-04 0.932232069317D-11 0.000000000000D+00
    0.178000000000D+03-0.609375000000D+01 0.483305845914D-08 0.260753257909D+01
   -0.208616256714D-06 0.278686301317D-02 0.690296292305D-05 0.515366700745D+04
    0.244784000000D+06-0.117346644402D-06 0.267577226397D+01-0.372529029846D-07
    0.960561884081D+00 0.247187500000D+03-0.286034785244D+01-0.808962267954D-08
    0.102861427449D-09 0.100000000000D+01 0.196800000000D+04 0.000000000000D+00
    0.200000000000D+01 0.000000000000D+00 0.186264514923D-08 0.690000000000D+03
    0.244410000000D+06 0.400000000000D+01 0.000000000000D+00 0.000000000000D+00
11 17  9 26 19 59 44.0-0.717928167432D-03-0.216004991671D-11 0.000000000000D+00
    0.172000000000D+03-0.202500000000D+02 0.568345102426D-08-0.226908798240D+01
   -0.923871994019D-06 0.170655128313D-01 0.775232911110D-05 0.515373227501D+04
    0.244784000000D+06 0.227242708206D-06 0.122573879472D+01 0.156462192535D-06
    0.902115436569D+00 0.191125000000D+03 0.169936276389D+01-0.836249118847D-08
    0.307155651409D-09 0.100000000000D+01 0.196800000000D+04 0.000000000000D+00
    0.200000000000D+01 0.000000000000D+00-0.121071934700D-07 0.940000000000D+03
    0.239940000000D+06 0.400000000000D+01 0.000000000000D+00 0.000000000000D+00
16 17  9 26 19 59 44.0 0.370079651475D-04 0.000000000000D+00 0.000000000000D+00
    0.130000000000D+03-0.337500000000D+01 0.387051836548D-08 0.141873472022D+01
   -0.596046447754D-07 0.930389889982D-02 0.492669641972D-05 0.515376971817D+04
    0.244784000000D+06-0.633299350738D-07-0.384046706847D+00 0.894069671631D-07
    0.989114400859D+00 0.301500000000D+03 0.460112350989D+00-0.797676083553D-08
   -0.157149403046D-09 0.100000000000D+01 0.196800000000D+04 0.000000000000D+00
    0.200000000000D+01 0.000000000000D+00-0.107102096081D-07 0.642000000000D+03
    0.237600000000D+06 0.400000000000D+01 0.000000000000D+00 0.000000000000D+00
30 17  9 26 19 59 44.0 0.138271600008D-03-0.216004991671D-11 0.000000000000D+00
    0.790000000000D+02 0.734687500000D+02 0.476734143605D-08-0.231409639799D+01
    0.370852649212D-05 0.304200337268D-02 0.700540840626D-05 0.515362887955D+04
    0.244784000000D+06-0.204890966415D-07-0.145298443541D+01-0.558793544769D-08
    0.946441558861D+00 0.237000000000D+03-0.305277521630D+01-0.822069956799D-08
   -0.250010413937D-10 0.100000000000D+01 0.196800000000D+04 0.000000000000D+00
    0.200000000000D+01 0.000000000000D+00 0.372529029846D-08 0.847000000000D+03
    0.237750000000D+06 0.400000000000D+01 0.000000000000D+00 0.000000000000D+00
 1 17  9 26 20  0  0.0-0.248057767749D-05-0.568434188608D-12 0.000000000000D+00
    0.182000000000D+03-0.120000000000D+02 0.442804158856D-08-0.165895183901D+01
   -0.789761543274D-06 0.704461731948D-02 0.807456672192D-05 0.515367793465D+04
    0.244800000000D+06 0.707805156708D-07 0.163659894815D+01-0.122934579849D-06
    0.968325335780D+00 0.225500000000D+03 0.626663357993D+00-0.789175729480D-08
    0.393944980818D-09 0.100000000000D+01 0.196800000000D+04 0.000000000000D+00
    0.200000000000D+01 0.000000000000D+00 0.558793544769D-08 0.694000000000D+03
    0.237600000000D+06 0.400000000000D+01 0.000000000000D+00 0.000000000000D+00
 2 17  9 26 20  0  0.0 0.320803374052D-03-0.920863385545D-11 0.000000000000D+00
    0.190000000000D+03-0.193125000000D+02 0.493913443478D-08-0.125241502251D+01
   -0.609084963798D-06 0.170956980437D-01 0.855699181557D-05 0.515358928680D+04
    0.244800000000D+06 0.186264514923D-06 0.158060183804D+01 0.435858964920D-06
    0.947305420765D+00 0.205687500000D+03-0.195352824918D+01-0.820962764436D-08
    0.346800171913D-09 0.100000000000D+01 0.196800000000D+04 0.000000000000D+00
    0.200000000000D+01 0.000000000000D+00-0.204890966415D-07 0.702000000000D+03
    0.237630000000D+06 0.000000000000D+00 0.000000000000D+00 0.000000000000D+00
